[{"OBJECT_NAME":"ONEWEB-0550","OBJECT_ID":"2023-043G","EPOCH":"2026-03-09T21:57:05.057568","MEAN_MOTION":13.21824485,"ECCENTRICITY":0.00015227,"INCLINATION":87.9163,"RA_OF_ASC_NODE":263.7739,"ARG_OF_PERICENTER":91.4615,"MEAN_ANOMALY":268.6693,"EPHEMERIS_TYPE":0,"CLASSIFICATION_TYPE":"U","NORAD_CAT_ID":56052,"ELEMENT_SET_NO":999,"REV_AT_EPOCH":14511,"BSTAR":-0.00010988424,"MEAN_MOTION_DOT":-3.2e-7,"MEAN_MOTION_DDOT":0},{"OBJECT_NAME":"COSMOS 970 DEB","OBJECT_ID":"1977-121DN","EPOCH":"2026-03-04T01:23:36.155040","MEAN_MOTION":13.36820724,"ECCENTRICITY":0.01064389,"INCLINATION":65.8215,"RA_OF_ASC_NODE":302.2658,"ARG_OF_PERICENTER":278.9219,"MEAN_ANOMALY":150.6106,"EPHEMERIS_TYPE":0,"CLASSIFICATION_TYPE":"U","NORAD_CAT_ID":65001,"ELEMENT_SET_NO":999,"REV_AT_EPOCH":59934,"BSTAR":0.00015547276,"MEAN_MOTION_DOT":1.0e-7,"MEAN_MOTION_DDOT":0}]
